{
  "type": "FeatureCollection",
  "generator": "overpass-turbo",
  "copyright": "The data included in this document is from www.openstreetmap.org. The data is made available under ODbL.",
  "timestamp": "2026-08-25T21:49:00Z",
  "features": [
    {
      "type": "Feature",
      "properties": {
        "@id": "relation/6947428",
        "boundary": "limited_traffic_zone",
        "emergency": "yes",
        "motor_vehicle": "no",
        "motor_vehicle:conditional": "yes @ (Sa 00:00-06:30,Sa-We 17:00-06:30,Th 13:00-00:00); customers @ (Sa-We 06:30-17:00; Th 06:30-13:00); yes @ (Fr; PH)",
        "motorcycle": "yes",
        "name": "محدوده طرح ترافیک تهران",
        "name:de": "Hauptverkehrszeit gesperrt",
        "name:en": "Restricted Traffic Boundary",
        "name:fa": "محدوده طرح ترافیک تهران",
        "note": "محدودیتهای ترافیکی بصورت پیش فرض برای همه وسایل نقلیه ممنوع است به استثنای اتوبوس، تاکسی، موتورسیکلت و امدادی. برای سایر خودروها ساعات آزاد از شنبه تا چهارشنبه از ۱۷ تا ۶:۳۰ صبح و پنجشنبه از ۱۳ به بعد مگر مشتریان طرح. جمعه و روزهای تعطیل کاملا آزاد است",
        "psv": "yes",
        "source": "http://trafficcontrol.tehran.ir/Default.aspx?tabid=105",
        "type": "boundary"
      },
      "geometry": {
        "type": "Polygon",
        "coordinates": [
          [
            [
              51.4373667,
              35.6988166
            ],
            [
              51.4372903,
              35.6988366
            ],
            [
              51.4368973,
              35.6989391
            ],
            [
              51.4375371,
              35.7000701
            ],
            [
              51.4379584,
              35.7008596
            ],
            [
              51.4382292,
              35.7014294
            ],
            [
              51.4384732,
              35.7021386
            ],
            [
              51.4384856,
              35.7021923
            ],
            [
              51.4390126,
              35.7034792
            ],
            [
              51.439985,
              35.7060469
            ],
            [
              51.4399826,
              35.7062229
            ],
            [
              51.4397391,
              35.7065398
            ],
            [
              51.4396251,
              35.7066155
            ],
            [
              51.4392941,
              35.7066622
            ],
            [
              51.4344503,
              35.7063981
            ],
            [
              51.4340989,
              35.7065003
            ],
            [
              51.4337713,
              35.7067065
            ],
            [
              51.433621,
              35.7067867
            ],
            [
              51.4344567,
              35.7079378
            ],
            [
              51.4351057,
              35.7088364
            ],
            [
              51.437397,
              35.7123961
            ],
            [
              51.4403353,
              35.7172978
            ],
            [
              51.4402944,
              35.7173373
            ],
            [
              51.4401932,
              35.7173728
            ],
            [
              51.4391252,
              35.7177313
            ],
            [
              51.4389035,
              35.7178122
            ],
            [
              51.4389728,
              35.7179599
            ],
            [
              51.4393871,
              35.7192625
            ],
            [
              51.4403349,
              35.7222421
            ],
            [
              51.4404883,
              35.7227168
            ],
            [
              51.4408268,
              35.7237645
            ],
            [
              51.437182,
              35.7243605
            ],
            [
              51.4367872,
              35.7244251
            ],
            [
              51.4357886,
              35.7243896
            ],
            [
              51.4323,
              35.7242657
            ],
            [
              51.4318284,
              35.7242489
            ],
            [
              51.4266,
              35.7240631
            ],
            [
              51.4240206,
              35.7239715
            ],
            [
              51.4195888,
              35.7238141
            ],
            [
              51.4181464,
              35.7237629
            ],
            [
              51.4164695,
              35.7237033
            ],
            [
              51.415898,
              35.723683
            ],
            [
              51.4102839,
              35.7234835
            ],
            [
              51.4096056,
              35.7226193
            ],
            [
              51.4094636,
              35.7224383
            ],
            [
              51.40891,
              35.7213357
            ],
            [
              51.4087925,
              35.7207874
            ],
            [
              51.4084236,
              35.7207433
            ],
            [
              51.4083165,
              35.720726
            ],
            [
              51.4064981,
              35.7200849
            ],
            [
              51.4062249,
              35.7198856
            ],
            [
              51.4050868,
              35.7195195
            ],
            [
              51.4046821,
              35.719446
            ],
            [
              51.4042966,
              35.7193192
            ],
            [
              51.3988748,
              35.7174424
            ],
            [
              51.3971734,
              35.7168336
            ],
            [
              51.394995,
              35.7160889
            ],
            [
              51.3923205,
              35.7151692
            ],
            [
              51.3911263,
              35.7147391
            ],
            [
              51.3900562,
              35.7143453
            ],
            [
              51.3900153,
              35.7143222
            ],
            [
              51.3899453,
              35.7142663
            ],
            [
              51.3897228,
              35.7140361
            ],
            [
              51.389652,
              35.713937
            ],
            [
              51.3895685,
              35.7138202
            ],
            [
              51.3895729,
              35.7137519
            ],
            [
              51.3898368,
              35.7118251
            ],
            [
              51.3903417,
              35.7082134
            ],
            [
              51.3903879,
              35.7081372
            ],
            [
              51.3904964,
              35.7080758
            ],
            [
              51.3907621,
              35.7080102
            ],
            [
              51.3917036,
              35.7077948
            ],
            [
              51.39162,
              35.7073098
            ],
            [
              51.3916328,
              35.7072105
            ],
            [
              51.3920454,
              35.7062139
            ],
            [
              51.3934169,
              35.7030621
            ],
            [
              51.3943084,
              35.7010049
            ],
            [
              51.3930422,
              35.7009813
            ],
            [
              51.3921893,
              35.7009672
            ],
            [
              51.3916394,
              35.7009731
            ],
            [
              51.391642,
              35.7008756
            ],
            [
              51.3915596,
              35.7006251
            ],
            [
              51.3914557,
              35.7005066
            ],
            [
              51.3914405,
              35.7002947
            ],
            [
              51.3915414,
              35.6992308
            ],
            [
              51.3918631,
              35.6963209
            ],
            [
              51.3919636,
              35.6960087
            ],
            [
              51.3920548,
              35.6955578
            ],
            [
              51.3921407,
              35.6949805
            ],
            [
              51.3921956,
              35.6945841
            ],
            [
              51.39226,
              35.6940188
            ],
            [
              51.3926194,
              35.6912141
            ],
            [
              51.3927911,
              35.6911227
            ],
            [
              51.3928857,
              35.6910288
            ],
            [
              51.3929535,
              35.6909174
            ],
            [
              51.392938,
              35.690718
            ],
            [
              51.3928769,
              35.6906293
            ],
            [
              51.3927884,
              35.6905661
            ],
            [
              51.3926811,
              35.6905138
            ],
            [
              51.3926698,
              35.6904603
            ],
            [
              51.3930026,
              35.6886814
            ],
            [
              51.3930972,
              35.6885007
            ],
            [
              51.3932374,
              35.6884315
            ],
            [
              51.3933108,
              35.6883768
            ],
            [
              51.3933572,
              35.6882284
            ],
            [
              51.3933451,
              35.688091
            ],
            [
              51.3932983,
              35.6879941
            ],
            [
              51.3931903,
              35.6878678
            ],
            [
              51.3930633,
              35.6877468
            ],
            [
              51.3938141,
              35.6826078
            ],
            [
              51.3939349,
              35.6816643
            ],
            [
              51.3940715,
              35.680668
            ],
            [
              51.3943958,
              35.6782741
            ],
            [
              51.3946666,
              35.6758305
            ],
            [
              51.394676,
              35.6756932
            ],
            [
              51.3948329,
              35.6756409
            ],
            [
              51.3949636,
              35.6755712
            ],
            [
              51.3950937,
              35.6754307
            ],
            [
              51.3951306,
              35.6751703
            ],
            [
              51.395085,
              35.6750788
            ],
            [
              51.3949388,
              35.6749524
            ],
            [
              51.3947685,
              35.6748642
            ],
            [
              51.3947289,
              35.6747999
            ],
            [
              51.3949073,
              35.6737946
            ],
            [
              51.3950191,
              35.6727613
            ],
            [
              51.3950423,
              35.6725847
            ],
            [
              51.3950827,
              35.672278
            ],
            [
              51.3951859,
              35.6715332
            ],
            [
              51.3953396,
              35.6703568
            ],
            [
              51.3954212,
              35.6697963
            ],
            [
              51.3955727,
              35.6686584
            ],
            [
              51.3956922,
              35.6678062
            ],
            [
              51.3957698,
              35.6677233
            ],
            [
              51.3961492,
              35.6673713
            ],
            [
              51.3962327,
              35.6673269
            ],
            [
              51.3963115,
              35.6672793
            ],
            [
              51.3963568,
              35.6672208
            ],
            [
              51.3964681,
              35.6669178
            ],
            [
              51.3964647,
              35.6668145
            ],
            [
              51.3964122,
              35.6667354
            ],
            [
              51.3963115,
              35.6666617
            ],
            [
              51.39611,
              35.6665612
            ],
            [
              51.396001,
              35.6664553
            ],
            [
              51.3959859,
              35.6663777
            ],
            [
              51.3959811,
              35.6663086
            ],
            [
              51.3959883,
              35.6660939
            ],
            [
              51.3960504,
              35.6655313
            ],
            [
              51.3961946,
              35.6644425
            ],
            [
              51.3963295,
              35.6635127
            ],
            [
              51.3964106,
              35.6629373
            ],
            [
              51.3964524,
              35.6626177
            ],
            [
              51.396587,
              35.6613999
            ],
            [
              51.3966525,
              35.6612873
            ],
            [
              51.3976608,
              35.6598421
            ],
            [
              51.3977753,
              35.6597753
            ],
            [
              51.3978531,
              35.6597568
            ],
            [
              51.3979889,
              35.6597248
            ],
            [
              51.3982039,
              35.6596773
            ],
            [
              51.398299,
              35.6596397
            ],
            [
              51.3983699,
              35.6595848
            ],
            [
              51.39848,
              35.6594481
            ],
            [
              51.3985389,
              35.6593978
            ],
            [
              51.3987357,
              35.6592876
            ],
            [
              51.4076527,
              35.6583941
            ],
            [
              51.4123185,
              35.6587242
            ],
            [
              51.4300121,
              35.6599762
            ],
            [
              51.4307072,
              35.6604415
            ],
            [
              51.4308651,
              35.6605472
            ],
            [
              51.4309606,
              35.6604461
            ],
            [
              51.4314847,
              35.6598912
            ],
            [
              51.4317332,
              35.6598783
            ],
            [
              51.435022,
              35.6597083
            ],
            [
              51.4351942,
              35.6596994
            ],
            [
              51.4365678,
              35.6599513
            ],
            [
              51.4378481,
              35.660186
            ],
            [
              51.439188,
              35.6604317
            ],
            [
              51.4425166,
              35.6606953
            ],
            [
              51.4443891,
              35.6608526
            ],
            [
              51.444826,
              35.6608893
            ],
            [
              51.4451199,
              35.6612087
            ],
            [
              51.4451661,
              35.6614323
            ],
            [
              51.4453438,
              35.6640695
            ],
            [
              51.4454107,
              35.6649261
            ],
            [
              51.4452624,
              35.6650858
            ],
            [
              51.445212,
              35.6652673
            ],
            [
              51.445205,
              35.6656026
            ],
            [
              51.445247,
              35.6656866
            ],
            [
              51.4453425,
              35.6658165
            ],
            [
              51.4454841,
              35.6659366
            ],
            [
              51.4456059,
              35.667953
            ],
            [
              51.4456949,
              35.6687166
            ],
            [
              51.4457531,
              35.6698275
            ],
            [
              51.4460082,
              35.6733383
            ],
            [
              51.4460685,
              35.6741807
            ],
            [
              51.4464105,
              35.6791369
            ],
            [
              51.4469039,
              35.6854628
            ],
            [
              51.4471862,
              35.6892341
            ],
            [
              51.446976,
              35.6894096
            ],
            [
              51.446843,
              35.6895173
            ],
            [
              51.4468879,
              35.6897625
            ],
            [
              51.4470372,
              35.6899278
            ],
            [
              51.4471871,
              35.6899798
            ],
            [
              51.4472247,
              35.6904875
            ],
            [
              51.4472849,
              35.6911542
            ],
            [
              51.4473303,
              35.6921339
            ],
            [
              51.4473731,
              35.6926695
            ],
            [
              51.4474018,
              35.6929907
            ],
            [
              51.4476866,
              35.696902
            ],
            [
              51.4477938,
              35.698364
            ],
            [
              51.4478903,
              35.6997389
            ],
            [
              51.4479966,
              35.7011901
            ],
            [
              51.4480036,
              35.7012561
            ],
            [
              51.4478948,
              35.7013778
            ],
            [
              51.4477082,
              35.7014579
            ],
            [
              51.447487,
              35.7015905
            ],
            [
              51.4474031,
              35.701616
            ],
            [
              51.445202,
              35.7010077
            ],
            [
              51.4428334,
              35.7003177
            ],
            [
              51.4407787,
              35.6997343
            ],
            [
              51.4385971,
              35.6991095
            ],
            [
              51.4383487,
              35.6990178
            ],
            [
              51.4380775,
              35.6985922
            ],
            [
              51.4374759,
              35.6987962
            ],
            [
              51.4373667,
              35.6988166
            ]
          ]
        ]
      },
      "id": "relation/6947428"
    },
    {
      "type": "Feature",
      "properties": {
        "@id": "relation/6950174",
        "boundary": "low_emission_zone",
        "name": "طرح کنترل آلودگی هوای تهران",
        "name:en": "Tehran Low Emission Zone",
        "note": "رابطه طبق مستندات او.اس.ام برای low_emission_zone تعریف شده. برای طرح ترافیک رابطه limited_traffic_zone استفاده شده شرایط جدید طرح کاهش آلودگی هوا: yon.ir/Q5ErO",
        "source": "http://trafficcontrol.tehran.ir/Default.aspx?tabid=105",
        "type": "boundary"
      },
      "geometry": {
        "type": "Polygon",
        "coordinates": [
          [
            [
              51.4606096,
              35.6441731
            ],
            [
              51.4607271,
              35.6441357
            ],
            [
              51.4632645,
              35.6431505
            ],
            [
              51.4629148,
              35.6452584
            ],
            [
              51.4627403,
              35.6458285
            ],
            [
              51.4618946,
              35.649015
            ],
            [
              51.4615163,
              35.6501218
            ],
            [
              51.4614409,
              35.6507199
            ],
            [
              51.4611676,
              35.6515907
            ],
            [
              51.4603562,
              35.6554648
            ],
            [
              51.4603213,
              35.6560825
            ],
            [
              51.4603371,
              35.6566912
            ],
            [
              51.4605731,
              35.6588008
            ],
            [
              51.4612812,
              35.6609452
            ],
            [
              51.4613443,
              35.661264
            ],
            [
              51.4624399,
              35.6631069
            ],
            [
              51.4645353,
              35.6673796
            ],
            [
              51.4646286,
              35.6675698
            ],
            [
              51.464693,
              35.6688772
            ],
            [
              51.4644739,
              35.6695462
            ],
            [
              51.4644192,
              35.6697132
            ],
            [
              51.4640752,
              35.670823
            ],
            [
              51.4632447,
              35.6714646
            ],
            [
              51.4629653,
              35.6718459
            ],
            [
              51.4613764,
              35.6733159
            ],
            [
              51.4611626,
              35.6735096
            ],
            [
              51.4598985,
              35.6746675
            ],
            [
              51.4596316,
              35.675077
            ],
            [
              51.4592405,
              35.6760681
            ],
            [
              51.4590333,
              35.6769541
            ],
            [
              51.4589885,
              35.6778818
            ],
            [
              51.4593286,
              35.6799111
            ],
            [
              51.4595174,
              35.6809493
            ],
            [
              51.4596008,
              35.6812474
            ],
            [
              51.4597515,
              35.6817859
            ],
            [
              51.459793,
              35.6819699
            ],
            [
              51.4598436,
              35.6821943
            ],
            [
              51.4597997,
              35.6825113
            ],
            [
              51.459629,
              35.6837455
            ],
            [
              51.4581913,
              35.686081
            ],
            [
              51.4576436,
              35.6869594
            ],
            [
              51.4574075,
              35.6874524
            ],
            [
              51.4571288,
              35.6880746
            ],
            [
              51.4570111,
              35.6883292
            ],
            [
              51.4567701,
              35.6897237
            ],
            [
              51.4567676,
              35.6898076
            ],
            [
              51.456667,
              35.6931537
            ],
            [
              51.4565807,
              35.6936755
            ],
            [
              51.456466,
              35.6942232
            ],
            [
              51.4564023,
              35.6948667
            ],
            [
              51.4564206,
              35.6953244
            ],
            [
              51.4563762,
              35.6955631
            ],
            [
              51.456564,
              35.6966749
            ],
            [
              51.4566323,
              35.6970306
            ],
            [
              51.4566591,
              35.6972166
            ],
            [
              51.457156,
              35.7017754
            ],
            [
              51.4572374,
              35.7025098
            ],
            [
              51.4574188,
              35.7043788
            ],
            [
              51.4569682,
              35.707184
            ],
            [
              51.4564747,
              35.710599
            ],
            [
              51.4564426,
              35.7108965
            ],
            [
              51.4561528,
              35.7135783
            ],
            [
              51.4568061,
              35.7150206
            ],
            [
              51.4569739,
              35.7152933
            ],
            [
              51.4571157,
              35.7154573
            ],
            [
              51.4574808,
              35.7159406
            ],
            [
              51.4580085,
              35.7164726
            ],
            [
              51.459865,
              35.7181952
            ],
            [
              51.4639634,
              35.7204773
            ],
            [
              51.4656383,
              35.7213981
            ],
            [
              51.4707441,
              35.7242053
            ],
            [
              51.4716769,
              35.7247423
            ],
            [
              51.4725945,
              35.7253098
            ],
            [
              51.4746279,
              35.7273235
            ],
            [
              51.4771814,
              35.7295357
            ],
            [
              51.4782304,
              35.7307546
            ],
            [
              51.4784461,
              35.7310052
            ],
            [
              51.4796022,
              35.7323484
            ],
            [
              51.48188,
              35.7346956
            ],
            [
              51.482191,
              35.7354789
            ],
            [
              51.4822501,
              35.7356454
            ],
            [
              51.4830178,
              35.7378093
            ],
            [
              51.4833182,
              35.7390459
            ],
            [
              51.4836341,
              35.7407476
            ],
            [
              51.4836609,
              35.7421191
            ],
            [
              51.4832015,
              35.7437186
            ],
            [
              51.4829697,
              35.7456479
            ],
            [
              51.4833397,
              35.7475449
            ],
            [
              51.484434,
              35.7509233
            ],
            [
              51.4852709,
              35.7536051
            ],
            [
              51.4850563,
              35.7555728
            ],
            [
              51.4845413,
              35.7570355
            ],
            [
              51.4821732,
              35.7587833
            ],
            [
              51.4810301,
              35.7590783
            ],
            [
              51.4793915,
              35.7589509
            ],
            [
              51.4771353,
              35.7584134
            ],
            [
              51.4770526,
              35.7583937
            ],
            [
              51.4762805,
              35.7580493
            ],
            [
              51.4742417,
              35.75714
            ],
            [
              51.4727577,
              35.756862
            ],
            [
              51.4716803,
              35.7566602
            ],
            [
              51.4715796,
              35.7566413
            ],
            [
              51.4688799,
              35.7566062
            ],
            [
              51.4679148,
              35.7565937
            ],
            [
              51.4670879,
              35.7565825
            ],
            [
              51.4642853,
              35.7563216
            ],
            [
              51.4614958,
              35.7563564
            ],
            [
              51.4587643,
              35.7559386
            ],
            [
              51.4573974,
              35.7557295
            ],
            [
              51.4548225,
              35.7547718
            ],
            [
              51.4519042,
              35.7530827
            ],
            [
              51.4501156,
              35.7518394
            ],
            [
              51.4500213,
              35.7517739
            ],
            [
              51.4496781,
              35.7515353
            ],
            [
              51.4473307,
              35.7510406
            ],
            [
              51.4441858,
              35.7506446
            ],
            [
              51.4406389,
              35.7504531
            ],
            [
              51.4361757,
              35.7491993
            ],
            [
              51.4352101,
              35.7491122
            ],
            [
              51.4323348,
              35.7490426
            ],
            [
              51.4276785,
              35.74906
            ],
            [
              51.4259833,
              35.7489555
            ],
            [
              51.4230866,
              35.7490426
            ],
            [
              51.4195675,
              35.7497914
            ],
            [
              51.4185022,
              35.7507813
            ],
            [
              51.4176753,
              35.751348
            ],
            [
              51.4165618,
              35.7517953
            ],
            [
              51.4159412,
              35.7519254
            ],
            [
              51.4147498,
              35.7518745
            ],
            [
              51.4138155,
              35.7518116
            ],
            [
              51.4131355,
              35.7516797
            ],
            [
              51.4127584,
              35.7515816
            ],
            [
              51.4126949,
              35.751408
            ],
            [
              51.4125592,
              35.7513948
            ],
            [
              51.4123675,
              35.751451
            ],
            [
              51.4120731,
              35.7514836
            ],
            [
              51.4115086,
              35.7515056
            ],
            [
              51.4114763,
              35.7515069
            ],
            [
              51.4094395,
              35.7509843
            ],
            [
              51.4061199,
              35.7510082
            ],
            [
              51.4052355,
              35.7510215
            ],
            [
              51.4052696,
              35.7509197
            ],
            [
              51.4052808,
              35.7508409
            ],
            [
              51.4052628,
              35.750685
            ],
            [
              51.4051982,
              35.7505966
            ],
            [
              51.4050389,
              35.7504758
            ],
            [
              51.4048898,
              35.7504313
            ],
            [
              51.4047011,
              35.7504361
            ],
            [
              51.4045871,
              35.7504797
            ],
            [
              51.4045118,
              35.7505265
            ],
            [
              51.4044671,
              35.7505783
            ],
            [
              51.4044154,
              35.7507258
            ],
            [
              51.4043843,
              35.7508814
            ],
            [
              51.4042709,
              35.7510468
            ],
            [
              51.4041866,
              35.7508835
            ],
            [
              51.404172,
              35.7507269
            ],
            [
              51.4041517,
              35.7506302
            ],
            [
              51.4041156,
              35.7505044
            ],
            [
              51.4040498,
              35.7504052
            ],
            [
              51.4039336,
              35.7503364
            ],
            [
              51.4038242,
              35.7502976
            ],
            [
              51.4036912,
              35.7502732
            ],
            [
              51.4035371,
              35.7502859
            ],
            [
              51.403429,
              35.7503181
            ],
            [
              51.4033128,
              35.7503831
            ],
            [
              51.4032052,
              35.7505075
            ],
            [
              51.4031502,
              35.7506349
            ],
            [
              51.4031605,
              35.7507371
            ],
            [
              51.4032066,
              35.750854
            ],
            [
              51.403272,
              35.7509649
            ],
            [
              51.4033769,
              35.75103
            ],
            [
              51.4018993,
              35.7509831
            ],
            [
              51.4009893,
              35.7509478
            ],
            [
              51.396201,
              35.7507619
            ],
            [
              51.3937077,
              35.7506685
            ],
            [
              51.3904683,
              35.7504381
            ],
            [
              51.3885243,
              35.7503227
            ],
            [
              51.3869655,
              35.7502896
            ],
            [
              51.3864107,
              35.7502611
            ],
            [
              51.3861807,
              35.7502415
            ],
            [
              51.3861701,
              35.7500891
            ],
            [
              51.3861651,
              35.7495177
            ],
            [
              51.3860359,
              35.7471935
            ],
            [
              51.3852996,
              35.7443927
            ],
            [
              51.3841409,
              35.7414494
            ],
            [
              51.3838295,
              35.7368353
            ],
            [
              51.3836682,
              35.7349448
            ],
            [
              51.3835594,
              35.7330501
            ],
            [
              51.3835775,
              35.7314622
            ],
            [
              51.3834892,
              35.7290742
            ],
            [
              51.3829098,
              35.726985
            ],
            [
              51.3823666,
              35.7260033
            ],
            [
              51.3799907,
              35.7224418
            ],
            [
              51.3788406,
              35.7200254
            ],
            [
              51.3786013,
              35.7190261
            ],
            [
              51.3784332,
              35.7180131
            ],
            [
              51.3783065,
              35.7168567
            ],
            [
              51.3782976,
              35.7166328
            ],
            [
              51.3782843,
              35.7159593
            ],
            [
              51.3783063,
              35.7149674
            ],
            [
              51.3783003,
              35.7140785
            ],
            [
              51.3780931,
              35.710421
            ],
            [
              51.3780861,
              35.7103023
            ],
            [
              51.3780589,
              35.71013
            ],
            [
              51.3780243,
              35.710064
            ],
            [
              51.3780026,
              35.7084971
            ],
            [
              51.377997,
              35.707496
            ],
            [
              51.3779704,
              35.7065238
            ],
            [
              51.3779557,
              35.7059157
            ],
            [
              51.377869,
              35.7056765
            ],
            [
              51.3777329,
              35.7055301
            ],
            [
              51.3777205,
              35.705295
            ],
            [
              51.3777329,
              35.7051453
            ],
            [
              51.3784233,
              35.6987735
            ],
            [
              51.3785904,
              35.6972289
            ],
            [
              51.3789209,
              35.6969742
            ],
            [
              51.3789229,
              35.6967111
            ],
            [
              51.3787239,
              35.6963211
            ],
            [
              51.378868,
              35.6951071
            ],
            [
              51.378974,
              35.6948692
            ],
            [
              51.3791676,
              35.693551
            ],
            [
              51.3797789,
              35.6877135
            ],
            [
              51.3798708,
              35.6863947
            ],
            [
              51.3803214,
              35.6816889
            ],
            [
              51.380772,
              35.6790918
            ],
            [
              51.3810878,
              35.6758884
            ],
            [
              51.381523,
              35.6733223
            ],
            [
              51.3819161,
              35.668508
            ],
            [
              51.3819737,
              35.6674129
            ],
            [
              51.3824243,
              35.6655825
            ],
            [
              51.3824631,
              35.6632647
            ],
            [
              51.3824743,
              35.6625984
            ],
            [
              51.3824791,
              35.6623104
            ],
            [
              51.3824826,
              35.6621018
            ],
            [
              51.3824857,
              35.6619151
            ],
            [
              51.3824888,
              35.6617331
            ],
            [
              51.3824915,
              35.6615745
            ],
            [
              51.3825079,
              35.6577847
            ],
            [
              51.3825753,
              35.6565732
            ],
            [
              51.3825639,
              35.6560805
            ],
            [
              51.3826029,
              35.6556404
            ],
            [
              51.3826315,
              35.6554041
            ],
            [
              51.3826522,
              35.6552435
            ],
            [
              51.382667,
              35.6551019
            ],
            [
              51.3826784,
              35.6550315
            ],
            [
              51.3827662,
              35.6544878
            ],
            [
              51.3830801,
              35.6539298
            ],
            [
              51.3834851,
              35.6535125
            ],
            [
              51.3856429,
              35.6522626
            ],
            [
              51.3884753,
              35.6504492
            ],
            [
              51.3928312,
              35.6460377
            ],
            [
              51.3934964,
              35.6460203
            ],
            [
              51.3980271,
              35.6494854
            ],
            [
              51.3982058,
              35.6496221
            ],
            [
              51.3984667,
              35.6498336
            ],
            [
              51.3988939,
              35.6496397
            ],
            [
              51.4037781,
              35.6490747
            ],
            [
              51.4100701,
              35.6484972
            ],
            [
              51.4219163,
              35.6470973
            ],
            [
              51.4335962,
              35.6458024
            ],
            [
              51.4380567,
              35.6452736
            ],
            [
              51.442441,
              35.6452093
            ],
            [
              51.4431122,
              35.6451995
            ],
            [
              51.4437186,
              35.6451874
            ],
            [
              51.4444095,
              35.6451737
            ],
            [
              51.4491791,
              35.6456541
            ],
            [
              51.4523977,
              35.6457587
            ],
            [
              51.455037,
              35.6455146
            ],
            [
              51.4572516,
              35.6450914
            ],
            [
              51.4590453,
              35.6446611
            ],
            [
              51.4606096,
              35.6441731
            ]
          ]
        ]
      },
      "id": "relation/6950174"
    }
  ]
}